ALOS (DAICHI)           
1 28931U 06002A   26044.47109864  .00001598  00000+0  27639-3 0  9998
2 28931  98.1175   0.5563 0001902  60.8362 299.3034 14.69728920 69926
H-2A R/B                
1 28932U 06002B   26044.38793872  .00008272  00000+0  42078-3 0  9997
2 28932  98.2363 189.3401 0052595 325.0981  34.6804 15.15919174 90756
RESURS-DK 1             
1 29228U 06021A   26044.13442346  .00002537  00000+0  15108-3 0  9999
2 29228  69.9343 300.5362 0004121 198.3114 161.7904 15.12601351 83816
CZ-4B R/B               
1 29507U 06046C   26044.46364243  .00005491  00000+0  28040-3 0  9992
2 29507  97.5650  89.4363 0033139 354.3928   5.6929 15.16641037 56379
CZ-2C R/B               
1 31114U 07010B   26044.27965780  .00000127  00000+0  77403-4 0  9992
2 31114  98.3970 158.7838 0059002   6.3846 353.8070 14.20237635976259
COSMO-SKYMED 1          
1 31598U 07023A   26044.52552162  .00003794  00000+0  34062-3 0  9992
2 31598  97.8858 235.3673 0001044  93.7122 266.4218 14.96339202 11296
KORONAS-FOTON           
1 33504U 09003A   26044.18562068  .00014225  00000+0  32493-3 0  9996
2 33504  82.4317 301.3393 0009058 242.1777 117.8553 15.42677235941967
CZ-2C R/B               
1 37731U 11030B   26044.50584927  .00001751  00000+0  22661-3 0  9995
2 37731  97.8500   2.2626 0054172  69.5935  51.3361 14.81126552786517
H-2A R/B                
1 38341U 12025E   26044.50078578  .00004176  00000+0  38083-3 0  9997
2 38341  98.4677   9.6233 0045532  33.5590 326.8498 14.94949522744609
SHIJIAN-16 (SJ-16)      
1 39358U 13057A   26044.56112957  .00001583  00000+0  15759-3 0  9992
2 39358  74.9704 230.7626 0016582 173.2507 186.8908 14.92253572667902
