CCSDS_OMM_VERS = 2.0
CREATION_DATE  = 
ORIGINATOR     = 

OBJECT_NAME    = ALOS (DAICHI)
OBJECT_ID      = 2006-002A
CENTER_NAME    = EARTH
REF_FRAME      = TEME
TIME_SYSTEM    = UTC
MEAN_ELEMENT_THEORY = SGP/SGP4

EPOCH          = 2026-02-13T11:18:22.922496
MEAN_MOTION    = 14.69728920
ECCENTRICITY   = .0001902
INCLINATION    = 98.1175
RA_OF_ASC_NODE = 0.5563
ARG_OF_PERICENTER = 60.8362
MEAN_ANOMALY   = 299.3034

EPHEMERIS_TYPE = 0
CLASSIFICATION_TYPE = U
NORAD_CAT_ID   = 28931
ELEMENT_SET_NO = 999
REV_AT_EPOCH   = 6992
BSTAR          = .27639E-3
MEAN_MOTION_DOT = .1598E-4
MEAN_MOTION_DDOT = 0

CCSDS_OMM_VERS = 2.0
CREATION_DATE  = 
ORIGINATOR     = 

OBJECT_NAME    = H-2A R/B
OBJECT_ID      = 2006-002B
CENTER_NAME    = EARTH
REF_FRAME      = TEME
TIME_SYSTEM    = UTC
MEAN_ELEMENT_THEORY = SGP/SGP4

EPOCH          = 2026-02-13T09:18:37.905408
MEAN_MOTION    = 15.15919174
ECCENTRICITY   = .0052595
INCLINATION    = 98.2363
RA_OF_ASC_NODE = 189.3401
ARG_OF_PERICENTER = 325.0981
MEAN_ANOMALY   = 34.6804

EPHEMERIS_TYPE = 0
CLASSIFICATION_TYPE = U
NORAD_CAT_ID   = 28932
ELEMENT_SET_NO = 999
REV_AT_EPOCH   = 9075
BSTAR          = .42078E-3
MEAN_MOTION_DOT = .8272E-4
MEAN_MOTION_DDOT = 0

CCSDS_OMM_VERS = 2.0
CREATION_DATE  = 
ORIGINATOR     = 

OBJECT_NAME    = RESURS-DK 1
OBJECT_ID      = 2006-021A
CENTER_NAME    = EARTH
REF_FRAME      = TEME
TIME_SYSTEM    = UTC
MEAN_ELEMENT_THEORY = SGP/SGP4

EPOCH          = 2026-02-13T03:13:34.186944
MEAN_MOTION    = 15.12601351
ECCENTRICITY   = .00041216
INCLINATION    = 69.9343
RA_OF_ASC_NODE = 300.5362
ARG_OF_PERICENTER = 198.3114
MEAN_ANOMALY   = 161.7904

EPHEMERIS_TYPE = 0
CLASSIFICATION_TYPE = U
NORAD_CAT_ID   = 29228
ELEMENT_SET_NO = 999
REV_AT_EPOCH   = 8381
BSTAR          = .15107507E-3
MEAN_MOTION_DOT = .2537E-4
MEAN_MOTION_DDOT = 0

CCSDS_OMM_VERS = 2.0
CREATION_DATE  = 
ORIGINATOR     = 

OBJECT_NAME    = CZ-4B R/B
OBJECT_ID      = 2006-046C
CENTER_NAME    = EARTH
REF_FRAME      = TEME
TIME_SYSTEM    = UTC
MEAN_ELEMENT_THEORY = SGP/SGP4

EPOCH          = 2026-02-13T11:07:38.705952
MEAN_MOTION    = 15.16641037
ECCENTRICITY   = .0033139
INCLINATION    = 97.5650
RA_OF_ASC_NODE = 89.4363
ARG_OF_PERICENTER = 354.3928
MEAN_ANOMALY   = 5.6929

EPHEMERIS_TYPE = 0
CLASSIFICATION_TYPE = U
NORAD_CAT_ID   = 29507
ELEMENT_SET_NO = 999
REV_AT_EPOCH   = 5637
BSTAR          = .2804E-3
MEAN_MOTION_DOT = .5491E-4
MEAN_MOTION_DDOT = 0

CCSDS_OMM_VERS = 2.0
CREATION_DATE  = 
ORIGINATOR     = 

OBJECT_NAME    = CZ-2C R/B
OBJECT_ID      = 2007-010B
CENTER_NAME    = EARTH
REF_FRAME      = TEME
TIME_SYSTEM    = UTC
MEAN_ELEMENT_THEORY = SGP/SGP4

EPOCH          = 2026-02-13T06:42:42.433920
MEAN_MOTION    = 14.20237635
ECCENTRICITY   = .0059002
INCLINATION    = 98.3970
RA_OF_ASC_NODE = 158.7838
ARG_OF_PERICENTER = 6.3846
MEAN_ANOMALY   = 353.8070

EPHEMERIS_TYPE = 0
CLASSIFICATION_TYPE = U
NORAD_CAT_ID   = 31114
ELEMENT_SET_NO = 999
REV_AT_EPOCH   = 97625
BSTAR          = .77403E-4
MEAN_MOTION_DOT = .127E-5
MEAN_MOTION_DDOT = 0

CCSDS_OMM_VERS = 2.0
CREATION_DATE  = 
ORIGINATOR     = 

OBJECT_NAME    = COSMO-SKYMED 1
OBJECT_ID      = 2007-023A
CENTER_NAME    = EARTH
REF_FRAME      = TEME
TIME_SYSTEM    = UTC
MEAN_ELEMENT_THEORY = SGP/SGP4

EPOCH          = 2026-02-13T12:36:45.067968
MEAN_MOTION    = 14.96339202
ECCENTRICITY   = .0001044
INCLINATION    = 97.8858
RA_OF_ASC_NODE = 235.3673
ARG_OF_PERICENTER = 93.7122
MEAN_ANOMALY   = 266.4218

EPHEMERIS_TYPE = 0
CLASSIFICATION_TYPE = U
NORAD_CAT_ID   = 31598
ELEMENT_SET_NO = 999
REV_AT_EPOCH   = 1129
BSTAR          = .34062E-3
MEAN_MOTION_DOT = .3794E-4
MEAN_MOTION_DDOT = 0

CCSDS_OMM_VERS = 2.0
CREATION_DATE  = 
ORIGINATOR     = 

OBJECT_NAME    = KORONAS-FOTON
OBJECT_ID      = 2009-003A
CENTER_NAME    = EARTH
REF_FRAME      = TEME
TIME_SYSTEM    = UTC
MEAN_ELEMENT_THEORY = SGP/SGP4

EPOCH          = 2026-02-13T04:27:17.626752
MEAN_MOTION    = 15.42677235
ECCENTRICITY   = .0009058
INCLINATION    = 82.4317
RA_OF_ASC_NODE = 301.3393
ARG_OF_PERICENTER = 242.1777
MEAN_ANOMALY   = 117.8553

EPHEMERIS_TYPE = 0
CLASSIFICATION_TYPE = U
NORAD_CAT_ID   = 33504
ELEMENT_SET_NO = 999
REV_AT_EPOCH   = 94196
BSTAR          = .32493E-3
MEAN_MOTION_DOT = .14225E-3
MEAN_MOTION_DDOT = 0

CCSDS_OMM_VERS = 2.0
CREATION_DATE  = 
ORIGINATOR     = 

OBJECT_NAME    = CZ-2C R/B
OBJECT_ID      = 2011-030B
CENTER_NAME    = EARTH
REF_FRAME      = TEME
TIME_SYSTEM    = UTC
MEAN_ELEMENT_THEORY = SGP/SGP4

EPOCH          = 2026-02-13T12:08:25.376928
MEAN_MOTION    = 14.81126552
ECCENTRICITY   = .0054172
INCLINATION    = 97.8500
RA_OF_ASC_NODE = 2.2626
ARG_OF_PERICENTER = 69.5935
MEAN_ANOMALY   = 51.3361

EPHEMERIS_TYPE = 0
CLASSIFICATION_TYPE = U
NORAD_CAT_ID   = 37731
ELEMENT_SET_NO = 999
REV_AT_EPOCH   = 78651
BSTAR          = .22661E-3
MEAN_MOTION_DOT = .1751E-4
MEAN_MOTION_DDOT = 0

CCSDS_OMM_VERS = 2.0
CREATION_DATE  = 
ORIGINATOR     = 

OBJECT_NAME    = H-2A R/B
OBJECT_ID      = 2012-025E
CENTER_NAME    = EARTH
REF_FRAME      = TEME
TIME_SYSTEM    = UTC
MEAN_ELEMENT_THEORY = SGP/SGP4

EPOCH          = 2026-02-13T12:01:07.891392
MEAN_MOTION    = 14.94949522
ECCENTRICITY   = .0045532
INCLINATION    = 98.4677
RA_OF_ASC_NODE = 9.6233
ARG_OF_PERICENTER = 33.5590
MEAN_ANOMALY   = 326.8498

EPHEMERIS_TYPE = 0
CLASSIFICATION_TYPE = U
NORAD_CAT_ID   = 38341
ELEMENT_SET_NO = 999
REV_AT_EPOCH   = 74460
BSTAR          = .38083E-3
MEAN_MOTION_DOT = .4176E-4
MEAN_MOTION_DDOT = 0

CCSDS_OMM_VERS = 2.0
CREATION_DATE  = 
ORIGINATOR     = 

OBJECT_NAME    = SHIJIAN-16 (SJ-16)
OBJECT_ID      = 2013-057A
CENTER_NAME    = EARTH
REF_FRAME      = TEME
TIME_SYSTEM    = UTC
MEAN_ELEMENT_THEORY = SGP/SGP4

EPOCH          = 2026-02-13T13:28:01.594848
MEAN_MOTION    = 14.92253572
ECCENTRICITY   = .0016582
INCLINATION    = 74.9704
RA_OF_ASC_NODE = 230.7626
ARG_OF_PERICENTER = 173.2507
MEAN_ANOMALY   = 186.8908

EPHEMERIS_TYPE = 0
CLASSIFICATION_TYPE = U
NORAD_CAT_ID   = 39358
ELEMENT_SET_NO = 999
REV_AT_EPOCH   = 66790
BSTAR          = .15759E-3
MEAN_MOTION_DOT = .1583E-4
MEAN_MOTION_DDOT = 0

